{"fetched_at":"2026-04-21T17:00:23Z","count":2339,"tles":[{"name":"COSMOS 2428","line1":"1 31792U 07029A   26110.72851720 -.00000194  00000+0 -78446-4 0  9990","line2":"2 31792  70.9392 115.1066 0009304 231.4640 128.5648 14.12946774970038","category":"Other"},{"name":"ALOS-2","line1":"1 39766U 14029A   26110.78651484  .00000398  00000+0  60126-4 0  9998","line2":"2 39766  97.9205 208.7721 0001810  87.7177 272.4242 14.79462426643099","category":"Other"},{"name":"COSMO-SKYMED 1","line1":"1 31598U 07023A   26110.98388692  .00001865  00000+0  16809-3 0  9997","line2":"2 31598  97.8868 302.3644 0001071  94.7458 265.3885 14.96815021 21234","category":"Other"},{"name":"YAOGAN-29","line1":"1 41038U 15069A   26110.96392313  .00000300  00000+0  43569-4 0  9996","line2":"2 41038  98.0075 139.4948 0001449 150.2153 209.9143 14.83036554562145","category":"Other"},{"name":"RESURS-DK 1","line1":"1 29228U 06021A   26110.78509385  .00001456  00000+0  88490-4 0  9995","line2":"2 29228  69.9296 128.1157 0002835 350.7325   9.3788 15.12964115 93893","category":"Other"},{"name":"H-2A R/B","line1":"1 38341U 12025E   26110.88598347  .00001378  00000+0  12859-3 0  9997","line2":"2 38341  98.4796  81.3393 0044244 172.7805 187.4060 14.95422420754521","category":"Other"},{"name":"KORONAS-FOTON","line1":"1 33504U 09003A   26110.89267721  .00009702  00000+0  20853-3 0  9997","line2":"2 33504  82.4308 231.9612 0010203   9.4041 350.7395 15.44447425952255","category":"Other"},{"name":"ALOS (DAICHI)","line1":"1 28931U 06002A   26110.84485874  .00000757  00000+0  13479-3 0  9994","line2":"2 28931  98.1281  66.6118 0001798 108.7614 251.3787 14.69927584 79671","category":"Other"},{"name":"CZ-2C R/B","line1":"1 31114U 07010B   26110.85513199  .00000079  00000+0  54900-4 0  9996","line2":"2 31114  98.4029 222.0301 0059281 170.5153 189.7159 14.20260884985705","category":"Other"},{"name":"H-2A R/B","line1":"1 28932U 06002B   26110.89305257  .00007977  00000+0  38996-3 0  9998","line2":"2 28932  98.2500 261.5974 0052609  98.1714 262.5490 15.17309275100836","category":"Other"},{"name":"SL-4 R/B","line1":"1 39679U 14021B   26110.35659866  .00009485  00000+0  20640-3 0  9990","line2":"2 39679  51.6051 133.7822 0092947 255.3803 103.6861 15.40554367662691","category":"Other"},{"name":"ASTRO-H (HITOMI)","line1":"1 41337U 16012A   26110.60558723  .00002068  00000+0  11759-3 0  9995","line2":"2 41337  30.9987  85.9943 0009465  32.7932 327.3293 15.10246991558571","category":"Other"},{"name":"CZ-2C R/B","line1":"1 37731U 11030B   26110.89913326  .00000648  00000+0  87991-4 0  9992","line2":"2 37731  97.8611  67.3420 0051559 211.6179 215.1773 14.81346277796347","category":"Other"},{"name":"SL-16 R/B","line1":"1 31793U 07029B   26110.90724461  .00000163  00000+0  10923-3 0  9991","line2":"2 31793  70.9735  83.6374 0002581 269.2400 121.5832 14.14842437971340","category":"Other"},{"name":"SHIJIAN-16 (SJ-16)","line1":"1 39358U 13057A   26110.99548694  .00000930  00000+0  93382-4 0  9998","line2":"2 39358  74.9697 104.9895 0016018   4.0698 356.0617 14.92465568677818","category":"Other"},{"name":"CZ-4B R/B","line1":"1 29507U 06046C   26110.62347860  .00003468  00000+0  17487-3 0  9995","line2":"2 29507  97.5512 155.4122 0034465 121.0688 239.3936 15.17306751 66409","category":"Other"}]}