[{"OBJECT_NAME":"ALOS (DAICHI)","OBJECT_ID":"2006-002A","EPOCH":"2026-04-20T20:16:35.795136","MEAN_MOTION":14.69927584,"ECCENTRICITY":0.00017981,"INCLINATION":98.1281,"RA_OF_ASC_NODE":66.6118,"ARG_OF_PERICENTER":108.7614,"MEAN_ANOMALY":251.3787,"EPHEMERIS_TYPE":0,"CLASSIFICATION_TYPE":"U","NORAD_CAT_ID":28931,"ELEMENT_SET_NO":999,"REV_AT_EPOCH":7967,"BSTAR":0.00013478565,"MEAN_MOTION_DOT":7.57e-6,"MEAN_MOTION_DDOT":0},{"OBJECT_NAME":"H-2A R/B","OBJECT_ID":"2006-002B","EPOCH":"2026-04-20T21:25:59.742048","MEAN_MOTION":15.17309275,"ECCENTRICITY":0.00526099,"INCLINATION":98.25,"RA_OF_ASC_NODE":261.5974,"ARG_OF_PERICENTER":98.1714,"MEAN_ANOMALY":262.549,"EPHEMERIS_TYPE":0,"CLASSIFICATION_TYPE":"U","NORAD_CAT_ID":28932,"ELEMENT_SET_NO":999,"REV_AT_EPOCH":10083,"BSTAR":0.00038995797,"MEAN_MOTION_DOT":7.977e-5,"MEAN_MOTION_DDOT":0},{"OBJECT_NAME":"RESURS-DK 1","OBJECT_ID":"2006-021A","EPOCH":"2026-04-20T18:50:32.108640","MEAN_MOTION":15.12964115,"ECCENTRICITY":0.00028358,"INCLINATION":69.9296,"RA_OF_ASC_NODE":128.1157,"ARG_OF_PERICENTER":350.7325,"MEAN_ANOMALY":9.3788,"EPHEMERIS_TYPE":0,"CLASSIFICATION_TYPE":"U","NORAD_CAT_ID":29228,"ELEMENT_SET_NO":999,"REV_AT_EPOCH":9389,"BSTAR":8.8490282e-5,"MEAN_MOTION_DOT":1.456e-5,"MEAN_MOTION_DDOT":0},{"OBJECT_NAME":"CZ-4B R/B","OBJECT_ID":"2006-046C","EPOCH":"2026-04-20T14:57:48.551040","MEAN_MOTION":15.17306751,"ECCENTRICITY":0.00344655,"INCLINATION":97.5512,"RA_OF_ASC_NODE":155.4122,"ARG_OF_PERICENTER":121.0688,"MEAN_ANOMALY":239.3936,"EPHEMERIS_TYPE":0,"CLASSIFICATION_TYPE":"U","NORAD_CAT_ID":29507,"ELEMENT_SET_NO":999,"REV_AT_EPOCH":6640,"BSTAR":0.00017486803,"MEAN_MOTION_DOT":3.468e-5,"MEAN_MOTION_DDOT":0},{"OBJECT_NAME":"CZ-2C R/B","OBJECT_ID":"2007-010B","EPOCH":"2026-04-20T20:31:23.403936","MEAN_MOTION":14.20260884,"ECCENTRICITY":0.00592819,"INCLINATION":98.4029,"RA_OF_ASC_NODE":222.0301,"ARG_OF_PERICENTER":170.5153,"MEAN_ANOMALY":189.7159,"EPHEMERIS_TYPE":0,"CLASSIFICATION_TYPE":"U","NORAD_CAT_ID":31114,"ELEMENT_SET_NO":999,"REV_AT_EPOCH":98570,"BSTAR":5.4900464e-5,"MEAN_MOTION_DOT":7.9e-7,"MEAN_MOTION_DDOT":0},{"OBJECT_NAME":"COSMO-SKYMED 1","OBJECT_ID":"2007-023A","EPOCH":"2026-04-20T23:36:47.829888","MEAN_MOTION":14.96815021,"ECCENTRICITY":0.00010714,"INCLINATION":97.8868,"RA_OF_ASC_NODE":302.3644,"ARG_OF_PERICENTER":94.7458,"MEAN_ANOMALY":265.3885,"EPHEMERIS_TYPE":0,"CLASSIFICATION_TYPE":"U","NORAD_CAT_ID":31598,"ELEMENT_SET_NO":999,"REV_AT_EPOCH":2123,"BSTAR":0.00016808642,"MEAN_MOTION_DOT":1.865e-5,"MEAN_MOTION_DDOT":0},{"OBJECT_NAME":"COSMOS 2428","OBJECT_ID":"2007-029A","EPOCH":"2026-04-20T17:29:03.886080","MEAN_MOTION":14.12946774,"ECCENTRICITY":0.00093042,"INCLINATION":70.9392,"RA_OF_ASC_NODE":115.1066,"ARG_OF_PERICENTER":231.464,"MEAN_ANOMALY":128.5648,"EPHEMERIS_TYPE":0,"CLASSIFICATION_TYPE":"U","NORAD_CAT_ID":31792,"ELEMENT_SET_NO":999,"REV_AT_EPOCH":97003,"BSTAR":-7.8446227e-5,"MEAN_MOTION_DOT":-1.94e-6,"MEAN_MOTION_DDOT":0},{"OBJECT_NAME":"SL-16 R/B","OBJECT_ID":"2007-029B","EPOCH":"2026-04-20T21:46:25.934304","MEAN_MOTION":14.14842437,"ECCENTRICITY":0.00025816,"INCLINATION":70.9735,"RA_OF_ASC_NODE":83.6374,"ARG_OF_PERICENTER":269.24,"MEAN_ANOMALY":121.5832,"EPHEMERIS_TYPE":0,"CLASSIFICATION_TYPE":"U","NORAD_CAT_ID":31793,"ELEMENT_SET_NO":999,"REV_AT_EPOCH":97134,"BSTAR":0.00010923397,"MEAN_MOTION_DOT":1.63e-6,"MEAN_MOTION_DDOT":0},{"OBJECT_NAME":"KORONAS-FOTON","OBJECT_ID":"2009-003A","EPOCH":"2026-04-20T21:25:27.310944","MEAN_MOTION":15.44447425,"ECCENTRICITY":0.00102037,"INCLINATION":82.4308,"RA_OF_ASC_NODE":231.9612,"ARG_OF_PERICENTER":9.4041,"MEAN_ANOMALY":350.7395,"EPHEMERIS_TYPE":0,"CLASSIFICATION_TYPE":"U","NORAD_CAT_ID":33504,"ELEMENT_SET_NO":999,"REV_AT_EPOCH":95225,"BSTAR":0.00020852725,"MEAN_MOTION_DOT":9.702e-5,"MEAN_MOTION_DDOT":0},{"OBJECT_NAME":"CZ-2C R/B","OBJECT_ID":"2011-030B","EPOCH":"2026-04-20T21:34:45.113664","MEAN_MOTION":14.81346277,"ECCENTRICITY":0.0051559,"INCLINATION":97.8611,"RA_OF_ASC_NODE":67.342,"ARG_OF_PERICENTER":211.6179,"MEAN_ANOMALY":215.1773,"EPHEMERIS_TYPE":0,"CLASSIFICATION_TYPE":"U","NORAD_CAT_ID":37731,"ELEMENT_SET_NO":999,"REV_AT_EPOCH":79634,"BSTAR":8.799149e-5,"MEAN_MOTION_DOT":6.48e-6,"MEAN_MOTION_DDOT":0},{"OBJECT_NAME":"H-2A R/B","OBJECT_ID":"2012-025E","EPOCH":"2026-04-20T21:15:48.971808","MEAN_MOTION":14.9542242,"ECCENTRICITY":0.00442446,"INCLINATION":98.4796,"RA_OF_ASC_NODE":81.3393,"ARG_OF_PERICENTER":172.7805,"MEAN_ANOMALY":187.406,"EPHEMERIS_TYPE":0,"CLASSIFICATION_TYPE":"U","NORAD_CAT_ID":38341,"ELEMENT_SET_NO":999,"REV_AT_EPOCH":75452,"BSTAR":0.00012859499,"MEAN_MOTION_DOT":1.378e-5,"MEAN_MOTION_DDOT":0},{"OBJECT_NAME":"SHIJIAN-16 (SJ-16)","OBJECT_ID":"2013-057A","EPOCH":"2026-04-20T23:53:30.071616","MEAN_MOTION":14.92465568,"ECCENTRICITY":0.00160183,"INCLINATION":74.9697,"RA_OF_ASC_NODE":104.9895,"ARG_OF_PERICENTER":4.0698,"MEAN_ANOMALY":356.0617,"EPHEMERIS_TYPE":0,"CLASSIFICATION_TYPE":"U","NORAD_CAT_ID":39358,"ELEMENT_SET_NO":999,"REV_AT_EPOCH":67781,"BSTAR":9.3381643e-5,"MEAN_MOTION_DOT":9.3e-6,"MEAN_MOTION_DDOT":0},{"OBJECT_NAME":"SL-4 R/B","OBJECT_ID":"2014-021B","EPOCH":"2026-04-20T08:33:30.124224","MEAN_MOTION":15.40554367,"ECCENTRICITY":0.00929477,"INCLINATION":51.6051,"RA_OF_ASC_NODE":133.7822,"ARG_OF_PERICENTER":255.3803,"MEAN_ANOMALY":103.6861,"EPHEMERIS_TYPE":0,"CLASSIFICATION_TYPE":"U","NORAD_CAT_ID":39679,"ELEMENT_SET_NO":999,"REV_AT_EPOCH":66269,"BSTAR":0.00020640492,"MEAN_MOTION_DOT":9.485e-5,"MEAN_MOTION_DDOT":0},{"OBJECT_NAME":"ALOS-2","OBJECT_ID":"2014-029A","EPOCH":"2026-04-20T18:52:34.882176","MEAN_MOTION":14.79462426,"ECCENTRICITY":0.00018107,"INCLINATION":97.9205,"RA_OF_ASC_NODE":208.7721,"ARG_OF_PERICENTER":87.7177,"MEAN_ANOMALY":272.4242,"EPHEMERIS_TYPE":0,"CLASSIFICATION_TYPE":"U","NORAD_CAT_ID":39766,"ELEMENT_SET_NO":999,"REV_AT_EPOCH":64309,"BSTAR":6.0125688e-5,"MEAN_MOTION_DOT":3.98e-6,"MEAN_MOTION_DDOT":0},{"OBJECT_NAME":"YAOGAN-29","OBJECT_ID":"2015-069A","EPOCH":"2026-04-20T23:08:02.958432","MEAN_MOTION":14.83036554,"ECCENTRICITY":0.00014497,"INCLINATION":98.0075,"RA_OF_ASC_NODE":139.4948,"ARG_OF_PERICENTER":150.2153,"MEAN_ANOMALY":209.9143,"EPHEMERIS_TYPE":0,"CLASSIFICATION_TYPE":"U","NORAD_CAT_ID":41038,"ELEMENT_SET_NO":999,"REV_AT_EPOCH":56214,"BSTAR":4.3568911e-5,"MEAN_MOTION_DOT":3.0e-6,"MEAN_MOTION_DDOT":0},{"OBJECT_NAME":"ASTRO-H (HITOMI)","OBJECT_ID":"2016-012A","EPOCH":"2026-04-20T14:32:02.736672","MEAN_MOTION":15.10246991,"ECCENTRICITY":0.00094651,"INCLINATION":30.9987,"RA_OF_ASC_NODE":85.9943,"ARG_OF_PERICENTER":32.7932,"MEAN_ANOMALY":327.3293,"EPHEMERIS_TYPE":0,"CLASSIFICATION_TYPE":"U","NORAD_CAT_ID":41337,"ELEMENT_SET_NO":999,"REV_AT_EPOCH":55857,"BSTAR":0.00011758823,"MEAN_MOTION_DOT":2.068e-5,"MEAN_MOTION_DDOT":0}]
